[
  {
    "OBJECT_NAME": "STARLINK-4787",
    "OBJECT_ID": "22119U",
    "EPOCH": "2025-11-11T05:00:44.710848",
    "MEAN_MOTION": 15.08853392,
    "ECCENTRICITY": 0.0001297,
    "INCLINATION": 53.2161,
    "RA_OF_ASC_NODE": 135.6032,
    "ARG_OF_PERICENTER": 104.5194,
    "MEAN_ANOMALY": 255.5942,
    "EPHEMERIS_TYPE": 0,
    "CLASSIFICATION_TYPE": "U",
    "NORAD_CAT_ID": 53904,
    "ELEMENT_SET_NO": 999,
    "REV_AT_EPOCH": 17380,
    "BSTAR": 0.000165,
    "MEAN_MOTION_DOT": 2.34e-05,
    "MEAN_MOTION_DDOT": 0.0,
    "TLE_LINE1": "1 53904U 22119U   25315.20885082  .00002340  00000+0  16500-3 0  9998",
    "TLE_LINE2": "2 53904  53.2161 135.6032 0001297 104.5194 255.5942 15.08853392173809",
    "COMMENT": "Grouped by shell and plane from TLE"
  },
  {
    "OBJECT_NAME": "STARLINK-5171",
    "OBJECT_ID": "22136AC",
    "EPOCH": "2025-11-10T21:29:53.924064",
    "MEAN_MOTION": 15.08845903,
    "ECCENTRICITY": 0.0001357,
    "INCLINATION": 53.2142,
    "RA_OF_ASC_NODE": 133.041,
    "ARG_OF_PERICENTER": 82.4193,
    "MEAN_ANOMALY": 277.6954,
    "EPHEMERIS_TYPE": 0,
    "CLASSIFICATION_TYPE": "U",
    "NORAD_CAT_ID": 54077,
    "ELEMENT_SET_NO": 999,
    "REV_AT_EPOCH": 16925,
    "BSTAR": 0.00025363999999999996,
    "MEAN_MOTION_DOT": 3.752e-05,
    "MEAN_MOTION_DDOT": 0.0,
    "TLE_LINE1": "1 54077U 22136AC  25314.89576301  .00003752  00000+0  25364-3 0  9990",
    "TLE_LINE2": "2 54077  53.2142 133.0410 0001357  82.4193 277.6954 15.08845903169253",
    "COMMENT": "Grouped by shell and plane from TLE"
  },
  {
    "OBJECT_NAME": "STARLINK-5211",
    "OBJECT_ID": "22136AM",
    "EPOCH": "2025-11-11T04:32:20.126112",
    "MEAN_MOTION": 15.08850403,
    "ECCENTRICITY": 0.0001773,
    "INCLINATION": 53.2191,
    "RA_OF_ASC_NODE": 131.1948,
    "ARG_OF_PERICENTER": 99.3558,
    "MEAN_ANOMALY": 260.7635,
    "EPHEMERIS_TYPE": 0,
    "CLASSIFICATION_TYPE": "U",
    "NORAD_CAT_ID": 54086,
    "ELEMENT_SET_NO": 999,
    "REV_AT_EPOCH": 16930,
    "BSTAR": 0.00020295,
    "MEAN_MOTION_DOT": 2.944e-05,
    "MEAN_MOTION_DDOT": 0.0,
    "TLE_LINE1": "1 54086U 22136AM  25315.18912183  .00002944  00000+0  20295-3 0  9995",
    "TLE_LINE2": "2 54086  53.2191 131.1948 0001773  99.3558 260.7635 15.08850403169302",
    "COMMENT": "Grouped by shell and plane from TLE"
  },
  {
    "OBJECT_NAME": "STARLINK-5204",
    "OBJECT_ID": "22136BC",
    "EPOCH": "2025-11-10T18:13:41.195712",
    "MEAN_MOTION": 15.08815487,
    "ECCENTRICITY": 9.59e-05,
    "INCLINATION": 53.2174,
    "RA_OF_ASC_NODE": 132.7781,
    "ARG_OF_PERICENTER": 119.472,
    "MEAN_ANOMALY": 240.6368,
    "EPHEMERIS_TYPE": 0,
    "CLASSIFICATION_TYPE": "U",
    "NORAD_CAT_ID": 54101,
    "ELEMENT_SET_NO": 999,
    "REV_AT_EPOCH": 16924,
    "BSTAR": 0.0006828800000000001,
    "MEAN_MOTION_DOT": 0.0001059,
    "MEAN_MOTION_DDOT": 0.0,
    "TLE_LINE1": "1 54101U 22136BC  25314.75950458  .00010590  00000+0  68288-3 0  9992",
    "TLE_LINE2": "2 54101  53.2174 132.7781 0000959 119.4720 240.6368 15.08815487169249",
    "COMMENT": "Grouped by shell and plane from TLE"
  },
  {
    "OBJECT_NAME": "STARLINK-5264",
    "OBJECT_ID": "22141BB",
    "EPOCH": "2025-11-11T04:53:29.965056",
    "MEAN_MOTION": 15.08838061,
    "ECCENTRICITY": 0.0001296,
    "INCLINATION": 53.2164,
    "RA_OF_ASC_NODE": 130.8624,
    "ARG_OF_PERICENTER": 90.7308,
    "MEAN_ANOMALY": 269.3833,
    "EPHEMERIS_TYPE": 0,
    "CLASSIFICATION_TYPE": "U",
    "NORAD_CAT_ID": 54206,
    "ELEMENT_SET_NO": 999,
    "REV_AT_EPOCH": 16860,
    "BSTAR": 9.530600000000001e-05,
    "MEAN_MOTION_DOT": 1.229e-05,
    "MEAN_MOTION_DDOT": 0.0,
    "TLE_LINE1": "1 54206U 22141BB  25315.20381904  .00001229  00000+0  95306-4 0  9990",
    "TLE_LINE2": "2 54206  53.2164 130.8624 0001296  90.7308 269.3833 15.08838061168604",
    "COMMENT": "Grouped by shell and plane from TLE"
  },
  {
    "OBJECT_NAME": "STARLINK-30107",
    "OBJECT_ID": "23056B",
    "EPOCH": "2025-11-10T21:43:39.497664",
    "MEAN_MOTION": 15.02536886,
    "ECCENTRICITY": 0.0001109,
    "INCLINATION": 43.0018,
    "RA_OF_ASC_NODE": 135.8806,
    "ARG_OF_PERICENTER": 268.2815,
    "MEAN_ANOMALY": 91.79,
    "EPHEMERIS_TYPE": 0,
    "CLASSIFICATION_TYPE": "U",
    "NORAD_CAT_ID": 56287,
    "ELEMENT_SET_NO": 999,
    "REV_AT_EPOCH": 14220,
    "BSTAR": 4.3301000000000004e-05,
    "MEAN_MOTION_DOT": 3.81e-06,
    "MEAN_MOTION_DDOT": 0.0,
    "TLE_LINE1": "1 56287U 23056B   25314.90531826  .00000381  00000+0  43301-4 0  9999",
    "TLE_LINE2": "2 56287  43.0018 135.8806 0001109 268.2815  91.7900 15.02536886142209",
    "COMMENT": "Grouped by shell and plane from TLE"
  },
  {
    "OBJECT_NAME": "STARLINK-30106",
    "OBJECT_ID": "23056C",
    "EPOCH": "2025-11-10T20:55:43.733280",
    "MEAN_MOTION": 15.02522982,
    "ECCENTRICITY": 0.000141,
    "INCLINATION": 43.0036,
    "RA_OF_ASC_NODE": 135.649,
    "ARG_OF_PERICENTER": 245.9705,
    "MEAN_ANOMALY": 114.0989,
    "EPHEMERIS_TYPE": 0,
    "CLASSIFICATION_TYPE": "U",
    "NORAD_CAT_ID": 56288,
    "ELEMENT_SET_NO": 999,
    "REV_AT_EPOCH": 14215,
    "BSTAR": 0.00044852,
    "MEAN_MOTION_DOT": 5.858e-05,
    "MEAN_MOTION_DDOT": 0.0,
    "TLE_LINE1": "1 56288U 23056C   25314.87203395  .00005858  00000+0  44852-3 0  9998",
    "TLE_LINE2": "2 56288  43.0036 135.6490 0001410 245.9705 114.0989 15.02522982142154",
    "COMMENT": "Grouped by shell and plane from TLE"
  },
  {
    "OBJECT_NAME": "STARLINK-30103",
    "OBJECT_ID": "23056E",
    "EPOCH": "2025-11-10T20:50:56.317632",
    "MEAN_MOTION": 15.02539271,
    "ECCENTRICITY": 0.0001084,
    "INCLINATION": 43.0019,
    "RA_OF_ASC_NODE": 135.6257,
    "ARG_OF_PERICENTER": 270.1578,
    "MEAN_ANOMALY": 89.914,
    "EPHEMERIS_TYPE": 0,
    "CLASSIFICATION_TYPE": "U",
    "NORAD_CAT_ID": 56290,
    "ELEMENT_SET_NO": 999,
    "REV_AT_EPOCH": 14215,
    "BSTAR": 0.00016458,
    "MEAN_MOTION_DOT": 2.02e-05,
    "MEAN_MOTION_DDOT": 0.0,
    "TLE_LINE1": "1 56290U 23056E   25314.86870738  .00002020  00000+0  16458-3 0  9990",
    "TLE_LINE2": "2 56290  43.0019 135.6257 0001084 270.1578  89.9140 15.02539271142152",
    "COMMENT": "Grouped by shell and plane from TLE"
  },
  {
    "OBJECT_NAME": "STARLINK-30113",
    "OBJECT_ID": "23056F",
    "EPOCH": "2025-11-11T04:59:08.609856",
    "MEAN_MOTION": 15.02541134,
    "ECCENTRICITY": 0.0001367,
    "INCLINATION": 43.0039,
    "RA_OF_ASC_NODE": 133.8622,
    "ARG_OF_PERICENTER": 265.0676,
    "MEAN_ANOMALY": 95.0011,
    "EPHEMERIS_TYPE": 0,
    "CLASSIFICATION_TYPE": "U",
    "NORAD_CAT_ID": 56291,
    "ELEMENT_SET_NO": 999,
    "REV_AT_EPOCH": 14220,
    "BSTAR": 8.4078e-05,
    "MEAN_MOTION_DOT": 9.32e-06,
    "MEAN_MOTION_DDOT": 0.0,
    "TLE_LINE1": "1 56291U 23056F   25315.20773854  .00000932  00000+0  84078-4 0  9995",
    "TLE_LINE2": "2 56291  43.0039 133.8622 0001367 265.0676  95.0011 15.02541134142209",
    "COMMENT": "Grouped by shell and plane from TLE"
  },
  {
    "OBJECT_NAME": "STARLINK-30098",
    "OBJECT_ID": "23056G",
    "EPOCH": "2025-11-10T20:46:06.694464",
    "MEAN_MOTION": 15.02544501,
    "ECCENTRICITY": 0.0001218,
    "INCLINATION": 43.0028,
    "RA_OF_ASC_NODE": 135.5903,
    "ARG_OF_PERICENTER": 269.0691,
    "MEAN_ANOMALY": 91.0012,
    "EPHEMERIS_TYPE": 0,
    "CLASSIFICATION_TYPE": "U",
    "NORAD_CAT_ID": 56292,
    "ELEMENT_SET_NO": 999,
    "REV_AT_EPOCH": 14215,
    "BSTAR": 0.00011883000000000001,
    "MEAN_MOTION_DOT": 1.402e-05,
    "MEAN_MOTION_DDOT": 0.0,
    "TLE_LINE1": "1 56292U 23056G   25314.86535526  .00001402  00000+0  11883-3 0  9995",
    "TLE_LINE2": "2 56292  43.0028 135.5903 0001218 269.0691  91.0012 15.02544501142157",
    "COMMENT": "Grouped by shell and plane from TLE"
  },
  {
    "OBJECT_NAME": "STARLINK-30090",
    "OBJECT_ID": "23056H",
    "EPOCH": "2025-11-10T22:12:25.664256",
    "MEAN_MOTION": 15.02536453,
    "ECCENTRICITY": 0.0001252,
    "INCLINATION": 43.0028,
    "RA_OF_ASC_NODE": 136.0245,
    "ARG_OF_PERICENTER": 262.1782,
    "MEAN_ANOMALY": 97.8918,
    "EPHEMERIS_TYPE": 0,
    "CLASSIFICATION_TYPE": "U",
    "NORAD_CAT_ID": 56293,
    "ELEMENT_SET_NO": 999,
    "REV_AT_EPOCH": 14215,
    "BSTAR": 2.5356000000000003e-05,
    "MEAN_MOTION_DOT": 1.39e-06,
    "MEAN_MOTION_DDOT": 0.0,
    "TLE_LINE1": "1 56293U 23056H   25314.92529704  .00000139  00000+0  25356-4 0  9991",
    "TLE_LINE2": "2 56293  43.0028 136.0245 0001252 262.1782  97.8918 15.02536453142152",
    "COMMENT": "Grouped by shell and plane from TLE"
  },
  {
    "OBJECT_NAME": "STARLINK-30049",
    "OBJECT_ID": "23056J",
    "EPOCH": "2025-11-11T04:30:32.815584",
    "MEAN_MOTION": 15.02529633,
    "ECCENTRICITY": 0.0001106,
    "INCLINATION": 43.0024,
    "RA_OF_ASC_NODE": 134.4969,
    "ARG_OF_PERICENTER": 280.2396,
    "MEAN_ANOMALY": 79.8322,
    "EPHEMERIS_TYPE": 0,
    "CLASSIFICATION_TYPE": "U",
    "NORAD_CAT_ID": 56294,
    "ELEMENT_SET_NO": 999,
    "REV_AT_EPOCH": 14219,
    "BSTAR": 0.00017453,
    "MEAN_MOTION_DOT": 2.154e-05,
    "MEAN_MOTION_DDOT": 0.0,
    "TLE_LINE1": "1 56294U 23056J   25315.18787981  .00002154  00000+0  17453-3 0  9991",
    "TLE_LINE2": "2 56294  43.0024 134.4969 0001106 280.2396  79.8322 15.02529633142199",
    "COMMENT": "Grouped by shell and plane from TLE"
  },
  {
    "OBJECT_NAME": "STARLINK-30086",
    "OBJECT_ID": "23056M",
    "EPOCH": "2025-11-10T21:38:51.142848",
    "MEAN_MOTION": 15.02539617,
    "ECCENTRICITY": 0.0001046,
    "INCLINATION": 43.0018,
    "RA_OF_ASC_NODE": 135.7905,
    "ARG_OF_PERICENTER": 271.356,
    "MEAN_ANOMALY": 88.7162,
    "EPHEMERIS_TYPE": 0,
    "CLASSIFICATION_TYPE": "U",
    "NORAD_CAT_ID": 56297,
    "ELEMENT_SET_NO": 999,
    "REV_AT_EPOCH": 14215,
    "BSTAR": 9.9357e-05,
    "MEAN_MOTION_DOT": 1.139e-05,
    "MEAN_MOTION_DDOT": 0.0,
    "TLE_LINE1": "1 56297U 23056M   25314.90198082  .00001139  00000+0  99357-4 0  9997",
    "TLE_LINE2": "2 56297  43.0018 135.7905 0001046 271.3560  88.7162 15.02539617142156",
    "COMMENT": "Grouped by shell and plane from TLE"
  }
]